{
  "type": "FeatureCollection",
  "features": [
    {
      "type": "Feature",
      "properties": {
        "norad_id": 30341,
        "name": "FENGYUN 1C DEB",
        "group": "fengyun-1c-debris",
        "lat": -46.668434437021105,
        "lon": -126.05131502069366,
        "alt_km": 809.6604687564068,
        "timestamp": "2025-12-02T15:49:07.465434+00:00",
        "meta_object_name": "FENGYUN 1C DEB",
        "meta_object_id": "1999-025ABC",
        "meta_epoch": "2025-12-02T03:24:05.887584",
        "meta_mean_motion": 14.33811866,
        "meta_eccentricity": 0.00490153,
        "meta_inclination": 99.2195,
        "meta_ra_of_asc_node": 223.484,
        "meta_arg_of_pericenter": 87.3474,
        "meta_mean_anomaly": 76.6013,
        "meta_ephemeris_type": 0,
        "meta_classification_type": "U",
        "meta_norad_cat_id": 30341,
        "meta_element_set_no": 999,
        "meta_rev_at_epoch": 96929,
        "meta_bstar": 0.0033668868,
        "meta_mean_motion_dot": 9.455e-05,
        "meta_mean_motion_ddot": 0,
        "tle_line1": "1 30341U 99025ABC 25336.14173481  .00009455  00000+0  33669-2 0  9995",
        "tle_line2": "2 30341  99.2195 223.4840 0049015  87.3474  76.6013 14.33811866969292"
      },
      "geometry": {
        "type": "Point",
        "coordinates": [
          -126.05131502069366,
          -46.668434437021105
        ]
      }
    },
    {
      "type": "Feature",
      "properties": {
        "norad_id": 30342,
        "name": "FENGYUN 1C DEB",
        "group": "fengyun-1c-debris",
        "lat": -76.47751990309536,
        "lon": -156.19728700637472,
        "alt_km": 1050.0161578793459,
        "timestamp": "2025-12-02T15:49:07.465445+00:00",
        "meta_object_name": "FENGYUN 1C DEB",
        "meta_object_id": "1999-025ABD",
        "meta_epoch": "2025-12-02T06:37:06.178944",
        "meta_mean_motion": 13.80018289,
        "meta_eccentricity": 0.01683456,
        "meta_inclination": 100.1958,
        "meta_ra_of_asc_node": 154.946,
        "meta_arg_of_pericenter": 149.5028,
        "meta_mean_anomaly": 24.444,
        "meta_ephemeris_type": 0,
        "meta_classification_type": "U",
        "meta_norad_cat_id": 30342,
        "meta_element_set_no": 999,
        "meta_rev_at_epoch": 94744,
        "meta_bstar": 0.00088874301,
        "meta_mean_motion_dot": 9.77e-06,
        "meta_mean_motion_ddot": 0,
        "tle_line1": "1 30342U 99025ABD 25336.27576596  .00000977  00000+0  88874-3 0  9993",
        "tle_line2": "2 30342 100.1958 154.9460 0168345 149.5028  24.4440 13.80018289947449"
      },
      "geometry": {
        "type": "Point",
        "coordinates": [
          -156.19728700637472,
          -76.47751990309536
        ]
      }
    },
    {
      "type": "Feature",
      "properties": {
        "norad_id": 30344,
        "name": "FENGYUN 1C DEB",
        "group": "fengyun-1c-debris",
        "lat": -66.21510176756274,
        "lon": 78.85265668710007,
        "alt_km": 733.0911057830926,
        "timestamp": "2025-12-02T15:49:07.465456+00:00",
        "meta_object_name": "FENGYUN 1C DEB",
        "meta_object_id": "1999-025ABF",
        "meta_epoch": "2025-12-02T04:47:58.286688",
        "meta_mean_motion": 14.51408249,
        "meta_eccentricity": 0.00085073,
        "meta_inclination": 98.8213,
        "meta_ra_of_asc_node": 57.7405,
        "meta_arg_of_pericenter": 149.9364,
        "meta_mean_anomaly": 264.6015,
        "meta_ephemeris_type": 0,
        "meta_classification_type": "U",
        "meta_norad_cat_id": 30344,
        "meta_element_set_no": 999,
        "meta_rev_at_epoch": 97924,
        "meta_bstar": 0.0029273726,
        "meta_mean_motion_dot": 0.00011654,
        "meta_mean_motion_ddot": 0,
        "tle_line1": "1 30344U 99025ABF 25336.19998017  .00011654  00000+0  29274-2 0  9994",
        "tle_line2": "2 30344  98.8213  57.7405 0008507 149.9364 264.6015 14.51408249979244"
      },
      "geometry": {
        "type": "Point",
        "coordinates": [
          78.85265668710007,
          -66.21510176756274
        ]
      }
    },
    {
      "type": "Feature",
      "properties": {
        "norad_id": 30345,
        "name": "FENGYUN 1C DEB",
        "group": "fengyun-1c-debris",
        "lat": -17.815704400000335,
        "lon": 38.48108042699875,
        "alt_km": 754.7459970537338,
        "timestamp": "2025-12-02T15:49:07.465466+00:00",
        "meta_object_name": "FENGYUN 1C DEB",
        "meta_object_id": "1999-025ABG",
        "meta_epoch": "2025-12-02T02:34:28.313760",
        "meta_mean_motion": 14.41431967,
        "meta_eccentricity": 0.00164109,
        "meta_inclination": 98.923,
        "meta_ra_of_asc_node": 35.011,
        "meta_arg_of_pericenter": 273.2619,
        "meta_mean_anomaly": 86.6691,
        "meta_ephemeris_type": 0,
        "meta_classification_type": "U",
        "meta_norad_cat_id": 30345,
        "meta_element_set_no": 999,
        "meta_rev_at_epoch": 97620,
        "meta_bstar": 0.0023784283,
        "meta_mean_motion_dot": 7.685e-05,
        "meta_mean_motion_ddot": 0,
        "tle_line1": "1 30345U 99025ABG 25336.10727215  .00007685  00000+0  23784-2 0  9995",
        "tle_line2": "2 30345  98.9230  35.0110 0016410 273.2619  86.6691 14.41431967976200"
      },
      "geometry": {
        "type": "Point",
        "coordinates": [
          38.48108042699875,
          -17.815704400000335
        ]
      }
    },
    {
      "type": "Feature",
      "properties": {
        "norad_id": 30346,
        "name": "FENGYUN 1C DEB",
        "group": "fengyun-1c-debris",
        "lat": -25.54269897073161,
        "lon": 77.4309990952644,
        "alt_km": 777.8796610869786,
        "timestamp": "2025-12-02T15:49:07.465477+00:00",
        "meta_object_name": "FENGYUN 1C DEB",
        "meta_object_id": "1999-025ABH",
        "meta_epoch": "2025-12-02T06:08:21.393888",
        "meta_mean_motion": 14.33707407,
        "meta_eccentricity": 0.00559426,
        "meta_inclination": 98.8093,
        "meta_ra_of_asc_node": 72.7705,
        "meta_arg_of_pericenter": 55.5978,
        "meta_mean_anomaly": 358.827,
        "meta_ephemeris_type": 0,
        "meta_classification_type": "U",
        "meta_norad_cat_id": 30346,
        "meta_element_set_no": 999,
        "meta_rev_at_epoch": 97263,
        "meta_bstar": 0.0024011279,
        "meta_mean_motion_dot": 6.743e-05,
        "meta_mean_motion_ddot": 0,
        "tle_line1": "1 30346U 99025ABH 25336.25580317  .00006743  00000+0  24011-2 0  9990",
        "tle_line2": "2 30346  98.8093  72.7705 0055942  55.5978 358.8270 14.33707407972633"
      },
      "geometry": {
        "type": "Point",
        "coordinates": [
          77.4309990952644,
          -25.54269897073161
        ]
      }
    },
    {
      "type": "Feature",
      "properties": {
        "norad_id": 30347,
        "name": "FENGYUN 1C DEB",
        "group": "fengyun-1c-debris",
        "lat": 52.86893645707429,
        "lon": 150.26379951743394,
        "alt_km": 804.8197974436516,
        "timestamp": "2025-12-02T15:49:07.465487+00:00",
        "meta_object_name": "FENGYUN 1C DEB",
        "meta_object_id": "1999-025ABJ",
        "meta_epoch": "2025-12-02T02:20:55.276800",
        "meta_mean_motion": 13.92761187,
        "meta_eccentricity": 0.01509372,
        "meta_inclination": 98.3772,
        "meta_ra_of_asc_node": 160.9779,
        "meta_arg_of_pericenter": 63.1794,
        "meta_mean_anomaly": 58.2879,
        "meta_ephemeris_type": 0,
        "meta_classification_type": "U",
        "meta_norad_cat_id": 30347,
        "meta_element_set_no": 999,
        "meta_rev_at_epoch": 95812,
        "meta_bstar": 0.00017554482,
        "meta_mean_motion_dot": 2.12e-06,
        "meta_mean_motion_ddot": 0,
        "tle_line1": "1 30347U 99025ABJ 25336.09786200  .00000212  00000+0  17554-3 0  9992",
        "tle_line2": "2 30347  98.3772 160.9779 0150937  63.1794  58.2879 13.92761187958128"
      },
      "geometry": {
        "type": "Point",
        "coordinates": [
          150.26379951743394,
          52.86893645707429
        ]
      }
    },
    {
      "type": "Feature",
      "properties": {
        "norad_id": 30348,
        "name": "FENGYUN 1C DEB",
        "group": "fengyun-1c-debris",
        "lat": -43.64803360194068,
        "lon": -117.41216282608862,
        "alt_km": 794.6506344847257,
        "timestamp": "2025-12-02T15:49:07.465497+00:00",
        "meta_object_name": "FENGYUN 1C DEB",
        "meta_object_id": "1999-025ABK",
        "meta_epoch": "2025-12-02T05:00:16.487424",
        "meta_mean_motion": 14.34906052,
        "meta_eccentricity": 0.0017778,
        "meta_inclination": 98.8641,
        "meta_ra_of_asc_node": 70.6863,
        "meta_arg_of_pericenter": 51.015,
        "meta_mean_anomaly": 6.9111,
        "meta_ephemeris_type": 0,
        "meta_classification_type": "U",
        "meta_norad_cat_id": 30348,
        "meta_element_set_no": 999,
        "meta_rev_at_epoch": 97383,
        "meta_bstar": 0.0024684079,
        "meta_mean_motion_dot": 6.989e-05,
        "meta_mean_motion_ddot": 0,
        "tle_line1": "1 30348U 99025ABK 25336.20852416  .00006989  00000+0  24684-2 0  9997",
        "tle_line2": "2 30348  98.8641  70.6863 0017778  51.0150   6.9111 14.34906052973830"
      },
      "geometry": {
        "type": "Point",
        "coordinates": [
          -117.41216282608862,
          -43.64803360194068
        ]
      }
    }
  ]
}